[{"OBJECT_NAME":"ITAMSAT (IO-26)","OBJECT_ID":"1993-061D","EPOCH":"2026-03-09T18:51:40.558176","MEAN_MOTION":14.31337175,"ECCENTRICITY":0.00091856,"INCLINATION":98.6929,"RA_OF_ASC_NODE":136.1036,"ARG_OF_PERICENTER":22.8845,"MEAN_ANOMALY":337.2746,"EPHEMERIS_TYPE":0,"CLASSIFICATION_TYPE":"U","NORAD_CAT_ID":22826,"ELEMENT_SET_NO":999,"REV_AT_EPOCH":69309,"BSTAR":7.3937292e-5,"MEAN_MOTION_DOT":1.51e-6,"MEAN_MOTION_DDOT":0},{"OBJECT_NAME":"YUNHAI-2 02B","OBJECT_ID":"2024-052B","EPOCH":"2026-03-09T23:36:35.688096","MEAN_MOTION":14.27934606,"ECCENTRICITY":0.00049008,"INCLINATION":50.0096,"RA_OF_ASC_NODE":82.8635,"ARG_OF_PERICENTER":204.1561,"MEAN_ANOMALY":155.9125,"EPHEMERIS_TYPE":0,"CLASSIFICATION_TYPE":"U","NORAD_CAT_ID":59281,"ELEMENT_SET_NO":999,"REV_AT_EPOCH":10243,"BSTAR":0.00011696599,"MEAN_MOTION_DOT":1.31e-6,"MEAN_MOTION_DDOT":0}]
